{
    "links": {
        "self": "http://www.neowsapp.com/rest/v1/neo/3893384?api_key=iIulBulltgU6a56xZRHN4H3l9WmuAYTsLGpBGhQ2"
    },
    "id": "3893384",
    "neo_reference_id": "3893384",
    "name": "(2019 WY)",
    "designation": "2019 WY",
    "nasa_jpl_url": "http://ssd.jpl.nasa.gov/sbdb.cgi?sstr=3893384",
    "absolute_magnitude_h": 25.8,
    "estimated_diameter": {
        "kilometers": {
            "estimated_diameter_min": 0.0183888672,
            "estimated_diameter_max": 0.0411187571
        },
        "meters": {
            "estimated_diameter_min": 18.388867207,
            "estimated_diameter_max": 41.1187571041
        },
        "miles": {
            "estimated_diameter_min": 0.0114263088,
            "estimated_diameter_max": 0.0255500032
        },
        "feet": {
            "estimated_diameter_min": 60.3309310875,
            "estimated_diameter_max": 134.9040630575
        }
    },
    "is_potentially_hazardous_asteroid": false,
    "close_approach_data": [
        {
            "close_approach_date": "2019-11-19",
            "close_approach_date_full": "2019-Nov-19 05:58",
            "epoch_date_close_approach": 1574143080000,
            "relative_velocity": {
                "kilometers_per_second": "26.9904272707",
                "kilometers_per_hour": "97165.5381746629",
                "miles_per_hour": "60374.8867619176"
            },
            "miss_distance": {
                "astronomical": "0.0031217558",
                "lunar": "1.2143630062",
                "kilometers": "467008.018340146",
                "miles": "290185.3265241748"
            },
            "orbiting_body": "Earth"
        },
        {
            "close_approach_date": "2019-11-19",
            "close_approach_date_full": "2019-Nov-19 05:58",
            "epoch_date_close_approach": 1574143080000,
            "relative_velocity": {
                "kilometers_per_second": "28.0400999884",
                "kilometers_per_hour": "100944.3599581864",
                "miles_per_hour": "62722.8996640186"
            },
            "miss_distance": {
                "astronomical": "0.0048496608",
                "lunar": "1.8865180512",
                "kilometers": "725498.925902496",
                "miles": "450804.1284906048"
            },
            "orbiting_body": "Moon"
        }
    ],
    "orbital_data": {
        "orbit_id": "2",
        "orbit_determination_date": "2019-11-25 04:55:16",
        "first_observation_date": "2019-11-21",
        "last_observation_date": "2019-11-24",
        "data_arc_in_days": 3,
        "observations_used": 17,
        "orbit_uncertainty": "9",
        "minimum_orbit_intersection": ".00282632",
        "jupiter_tisserand_invariant": "2.868",
        "epoch_osculation": "2458810.5",
        "eccentricity": ".8197746245389506",
        "semi_major_axis": "2.508410483947324",
        "inclination": "3.900333545524775",
        "ascending_node_longitude": "233.8175360013988",
        "orbital_period": "1451.096644137934",
        "perihelion_distance": ".4520792212798391",
        "perihelion_argument": "80.65041868103997",
        "aphelion_distance": "4.564741746614808",
        "perihelion_time": "2458763.622302045300",
        "mean_anomaly": "11.62980517656538",
        "mean_motion": ".2480882313761179",
        "equinox": "J2000",
        "orbit_class": {
            "orbit_class_type": "APO",
            "orbit_class_description": "Near-Earth asteroid orbits which cross the Earth’s orbit similar to that of 1862 Apollo",
            "orbit_class_range": "a (semi-major axis) > 1.0 AU; q (perihelion) < 1.017 AU"
        }
    },
    "is_sentry_object": false
}